ALOS (DAICHI)           
1 28931U 06002A   25351.73419158  .00001110  00000+0  19545-3 0  9994
2 28931  98.1098 303.1864 0001361 113.5739 246.5610 14.69501788 61443
H-2A R/B                
1 28932U 06002B   25355.83599044  .00008189  00000+0  42951-3 0  9993
2 28932  98.2325 131.3288 0054860 145.5341 214.9466 15.14738728 82645
RESURS-DK 1             
1 29228U 06021A   25355.69425270  .00002037  00000+0  12385-3 0  9990
2 29228  69.9339  78.6966 0006860 251.1441 108.8982 15.12205995 75731
CZ-4B R/B               
1 29507U 06046C   25355.68030682  .00003918  00000+0  20495-3 0  9995
2 29507  97.5717  35.7944 0034040 175.2927 184.8632 15.15952187 48229
CZ-2C R/B               
1 31114U 07010B   25355.80708863  .00000111  00000+0  69777-4 0  9990
2 31114  98.3976 108.0016 0059489 159.6685 200.6880 14.20213248968661
COSMO-SKYMED 1          
1 31598U 07023A   25355.81903183  .00002929  00000+0  26759-3 0  9994
2 31598  97.8838 181.2780 0001514  81.8695 278.2697 14.95831009  3268
COSMOS 2428             
1 31792U 07029A   25355.72968584  .00000167  00000+0  11569-3 0  9997
2 31792  70.9365   7.0043 0004177  10.9465 349.1746 14.12893143953087
SL-16 R/B               
1 31793U 07029B   25355.74385367  .00000247  00000+0  15299-3 0  9995
2 31793  70.9759 336.2297 0001901 262.9375 270.0827 14.14816917954342
KORONAS-FOTON           
1 33504U 09003A   25355.45411842  .00008063  00000+0  19179-3 0  9992
2 33504  82.4306 357.0742 0013403  81.3597 278.9168 15.41358600933685
CZ-2C R/B               
1 37731U 11030B   25355.84447890  .00001098  00000+0  14582-3 0  9990
2 37731  97.8428 309.7502 0051412 243.1225 146.3934 14.80927953778571
H-2A R/B                
1 38341U 12025E   25355.74545321  .00002173  00000+0  20379-3 0  9996
2 38341  98.4610 311.6703 0044368 206.2534 153.6436 14.94496716736574
SHIJIAN-16 (SJ-16)      
1 39358U 13057A   25355.85582138  .00001609  00000+0  16112-3 0  9993
2 39358  74.9730 332.4049 0017937 298.6493  61.2890 14.92008910659890
