CCSDS_OMM_VERS = 2.0
CREATION_DATE  = 
ORIGINATOR     = 

OBJECT_NAME    = ALOS (DAICHI)
OBJECT_ID      = 2006-002A
CENTER_NAME    = EARTH
REF_FRAME      = TEME
TIME_SYSTEM    = UTC
MEAN_ELEMENT_THEORY = SGP/SGP4

EPOCH          = 2025-12-17T17:37:14.152512
MEAN_MOTION    = 14.69501788
ECCENTRICITY   = .00013612
INCLINATION    = 98.1098
RA_OF_ASC_NODE = 303.1864
ARG_OF_PERICENTER = 113.5739
MEAN_ANOMALY   = 246.5610

EPHEMERIS_TYPE = 0
CLASSIFICATION_TYPE = U
NORAD_CAT_ID   = 28931
ELEMENT_SET_NO = 999
REV_AT_EPOCH   = 6144
BSTAR          = .19545051E-3
MEAN_MOTION_DOT = .111E-4
MEAN_MOTION_DDOT = 0

CCSDS_OMM_VERS = 2.0
CREATION_DATE  = 
ORIGINATOR     = 

OBJECT_NAME    = H-2A R/B
OBJECT_ID      = 2006-002B
CENTER_NAME    = EARTH
REF_FRAME      = TEME
TIME_SYSTEM    = UTC
MEAN_ELEMENT_THEORY = SGP/SGP4

EPOCH          = 2025-12-21T20:03:49.574016
MEAN_MOTION    = 15.14738728
ECCENTRICITY   = .005486
INCLINATION    = 98.2325
RA_OF_ASC_NODE = 131.3288
ARG_OF_PERICENTER = 145.5341
MEAN_ANOMALY   = 214.9466

EPHEMERIS_TYPE = 0
CLASSIFICATION_TYPE = U
NORAD_CAT_ID   = 28932
ELEMENT_SET_NO = 999
REV_AT_EPOCH   = 8264
BSTAR          = .42951E-3
MEAN_MOTION_DOT = .8189E-4
MEAN_MOTION_DDOT = 0

CCSDS_OMM_VERS = 2.0
CREATION_DATE  = 
ORIGINATOR     = 

OBJECT_NAME    = RESURS-DK 1
OBJECT_ID      = 2006-021A
CENTER_NAME    = EARTH
REF_FRAME      = TEME
TIME_SYSTEM    = UTC
MEAN_ELEMENT_THEORY = SGP/SGP4

EPOCH          = 2025-12-21T16:39:43.433280
MEAN_MOTION    = 15.12205995
ECCENTRICITY   = .000686
INCLINATION    = 69.9339
RA_OF_ASC_NODE = 78.6966
ARG_OF_PERICENTER = 251.1441
MEAN_ANOMALY   = 108.8982

EPHEMERIS_TYPE = 0
CLASSIFICATION_TYPE = U
NORAD_CAT_ID   = 29228
ELEMENT_SET_NO = 999
REV_AT_EPOCH   = 7573
BSTAR          = .12385E-3
MEAN_MOTION_DOT = .2037E-4
MEAN_MOTION_DDOT = 0

CCSDS_OMM_VERS = 2.0
CREATION_DATE  = 
ORIGINATOR     = 

OBJECT_NAME    = CZ-4B R/B
OBJECT_ID      = 2006-046C
CENTER_NAME    = EARTH
REF_FRAME      = TEME
TIME_SYSTEM    = UTC
MEAN_ELEMENT_THEORY = SGP/SGP4

EPOCH          = 2025-12-21T16:19:38.509248
MEAN_MOTION    = 15.15952187
ECCENTRICITY   = .003404
INCLINATION    = 97.5717
RA_OF_ASC_NODE = 35.7944
ARG_OF_PERICENTER = 175.2927
MEAN_ANOMALY   = 184.8632

EPHEMERIS_TYPE = 0
CLASSIFICATION_TYPE = U
NORAD_CAT_ID   = 29507
ELEMENT_SET_NO = 999
REV_AT_EPOCH   = 4822
BSTAR          = .20495E-3
MEAN_MOTION_DOT = .3918E-4
MEAN_MOTION_DDOT = 0

CCSDS_OMM_VERS = 2.0
CREATION_DATE  = 
ORIGINATOR     = 

OBJECT_NAME    = CZ-2C R/B
OBJECT_ID      = 2007-010B
CENTER_NAME    = EARTH
REF_FRAME      = TEME
TIME_SYSTEM    = UTC
MEAN_ELEMENT_THEORY = SGP/SGP4

EPOCH          = 2025-12-21T19:22:12.457632
MEAN_MOTION    = 14.20213248
ECCENTRICITY   = .0059489
INCLINATION    = 98.3976
RA_OF_ASC_NODE = 108.0016
ARG_OF_PERICENTER = 159.6685
MEAN_ANOMALY   = 200.6880

EPHEMERIS_TYPE = 0
CLASSIFICATION_TYPE = U
NORAD_CAT_ID   = 31114
ELEMENT_SET_NO = 999
REV_AT_EPOCH   = 96866
BSTAR          = .69777E-4
MEAN_MOTION_DOT = .111E-5
MEAN_MOTION_DDOT = 0

CCSDS_OMM_VERS = 2.0
CREATION_DATE  = 
ORIGINATOR     = 

OBJECT_NAME    = COSMO-SKYMED 1
OBJECT_ID      = 2007-023A
CENTER_NAME    = EARTH
REF_FRAME      = TEME
TIME_SYSTEM    = UTC
MEAN_ELEMENT_THEORY = SGP/SGP4

EPOCH          = 2025-12-21T19:39:24.350112
MEAN_MOTION    = 14.95831009
ECCENTRICITY   = .0001514
INCLINATION    = 97.8838
RA_OF_ASC_NODE = 181.2780
ARG_OF_PERICENTER = 81.8695
MEAN_ANOMALY   = 278.2697

EPHEMERIS_TYPE = 0
CLASSIFICATION_TYPE = U
NORAD_CAT_ID   = 31598
ELEMENT_SET_NO = 999
REV_AT_EPOCH   = 326
BSTAR          = .26759E-3
MEAN_MOTION_DOT = .2929E-4
MEAN_MOTION_DDOT = 0

CCSDS_OMM_VERS = 2.0
CREATION_DATE  = 
ORIGINATOR     = 

OBJECT_NAME    = COSMOS 2428
OBJECT_ID      = 2007-029A
CENTER_NAME    = EARTH
REF_FRAME      = TEME
TIME_SYSTEM    = UTC
MEAN_ELEMENT_THEORY = SGP/SGP4

EPOCH          = 2025-12-21T17:30:44.856576
MEAN_MOTION    = 14.12893143
ECCENTRICITY   = .0004177
INCLINATION    = 70.9365
RA_OF_ASC_NODE = 7.0043
ARG_OF_PERICENTER = 10.9465
MEAN_ANOMALY   = 349.1746

EPHEMERIS_TYPE = 0
CLASSIFICATION_TYPE = U
NORAD_CAT_ID   = 31792
ELEMENT_SET_NO = 999
REV_AT_EPOCH   = 95308
BSTAR          = .11569E-3
MEAN_MOTION_DOT = .167E-5
MEAN_MOTION_DDOT = 0

CCSDS_OMM_VERS = 2.0
CREATION_DATE  = 
ORIGINATOR     = 

OBJECT_NAME    = SL-16 R/B
OBJECT_ID      = 2007-029B
CENTER_NAME    = EARTH
REF_FRAME      = TEME
TIME_SYSTEM    = UTC
MEAN_ELEMENT_THEORY = SGP/SGP4

EPOCH          = 2025-12-21T17:51:08.957088
MEAN_MOTION    = 14.14816917
ECCENTRICITY   = .0001901
INCLINATION    = 70.9759
RA_OF_ASC_NODE = 336.2297
ARG_OF_PERICENTER = 262.9375
MEAN_ANOMALY   = 270.0827

EPHEMERIS_TYPE = 0
CLASSIFICATION_TYPE = U
NORAD_CAT_ID   = 31793
ELEMENT_SET_NO = 999
REV_AT_EPOCH   = 95434
BSTAR          = .15299E-3
MEAN_MOTION_DOT = .247E-5
MEAN_MOTION_DDOT = 0

CCSDS_OMM_VERS = 2.0
CREATION_DATE  = 
ORIGINATOR     = 

OBJECT_NAME    = KORONAS-FOTON
OBJECT_ID      = 2009-003A
CENTER_NAME    = EARTH
REF_FRAME      = TEME
TIME_SYSTEM    = UTC
MEAN_ELEMENT_THEORY = SGP/SGP4

EPOCH          = 2025-12-21T10:53:55.831488
MEAN_MOTION    = 15.41358600
ECCENTRICITY   = .00134037
INCLINATION    = 82.4306
RA_OF_ASC_NODE = 357.0742
ARG_OF_PERICENTER = 81.3597
MEAN_ANOMALY   = 278.9168

EPHEMERIS_TYPE = 0
CLASSIFICATION_TYPE = U
NORAD_CAT_ID   = 33504
ELEMENT_SET_NO = 999
REV_AT_EPOCH   = 93368
BSTAR          = .19178617E-3
MEAN_MOTION_DOT = .8063E-4
MEAN_MOTION_DDOT = 0

CCSDS_OMM_VERS = 2.0
CREATION_DATE  = 
ORIGINATOR     = 

OBJECT_NAME    = CZ-2C R/B
OBJECT_ID      = 2011-030B
CENTER_NAME    = EARTH
REF_FRAME      = TEME
TIME_SYSTEM    = UTC
MEAN_ELEMENT_THEORY = SGP/SGP4

EPOCH          = 2025-12-21T20:16:02.976960
MEAN_MOTION    = 14.80927953
ECCENTRICITY   = .0051412
INCLINATION    = 97.8428
RA_OF_ASC_NODE = 309.7502
ARG_OF_PERICENTER = 243.1225
MEAN_ANOMALY   = 146.3934

EPHEMERIS_TYPE = 0
CLASSIFICATION_TYPE = U
NORAD_CAT_ID   = 37731
ELEMENT_SET_NO = 999
REV_AT_EPOCH   = 77857
BSTAR          = .14582E-3
MEAN_MOTION_DOT = .1098E-4
MEAN_MOTION_DDOT = 0

CCSDS_OMM_VERS = 2.0
CREATION_DATE  = 
ORIGINATOR     = 

OBJECT_NAME    = H-2A R/B
OBJECT_ID      = 2012-025E
CENTER_NAME    = EARTH
REF_FRAME      = TEME
TIME_SYSTEM    = UTC
MEAN_ELEMENT_THEORY = SGP/SGP4

EPOCH          = 2025-12-21T17:53:27.157344
MEAN_MOTION    = 14.94496716
ECCENTRICITY   = .0044368
INCLINATION    = 98.4610
RA_OF_ASC_NODE = 311.6703
ARG_OF_PERICENTER = 206.2534
MEAN_ANOMALY   = 153.6436

EPHEMERIS_TYPE = 0
CLASSIFICATION_TYPE = U
NORAD_CAT_ID   = 38341
ELEMENT_SET_NO = 999
REV_AT_EPOCH   = 73657
BSTAR          = .20379E-3
MEAN_MOTION_DOT = .2173E-4
MEAN_MOTION_DDOT = 0

CCSDS_OMM_VERS = 2.0
CREATION_DATE  = 
ORIGINATOR     = 

OBJECT_NAME    = SHIJIAN-16 (SJ-16)
OBJECT_ID      = 2013-057A
CENTER_NAME    = EARTH
REF_FRAME      = TEME
TIME_SYSTEM    = UTC
MEAN_ELEMENT_THEORY = SGP/SGP4

EPOCH          = 2025-12-21T20:32:22.967232
MEAN_MOTION    = 14.92008910
ECCENTRICITY   = .0017937
INCLINATION    = 74.9730
RA_OF_ASC_NODE = 332.4049
ARG_OF_PERICENTER = 298.6493
MEAN_ANOMALY   = 61.2890

EPHEMERIS_TYPE = 0
CLASSIFICATION_TYPE = U
NORAD_CAT_ID   = 39358
ELEMENT_SET_NO = 999
REV_AT_EPOCH   = 65989
BSTAR          = .16112E-3
MEAN_MOTION_DOT = .1609E-4
MEAN_MOTION_DDOT = 0

